{"type": "FeatureCollection", "features": [{"type": "Feature", "properties": {"norad_id": 28054, "name": "DMSP 5D-3 F16 (USA 172)", "group": "weather", "lat": 25.181039180904513, "lon": -164.3487537971795, "alt_km": 847.1222488391368, "timestamp": "2025-12-19T20:42:59.723362+00:00", "meta": {"OBJECT_NAME": "DMSP 5D-3 F16 (USA 172)", "OBJECT_ID": "2003-048A", "EPOCH": "2025-12-19T06:41:41.769888", "MEAN_MOTION": 14.14426491, "ECCENTRICITY": 0.00063196, "INCLINATION": 99.004, "RA_OF_ASC_NODE": 10.7873, "ARG_OF_PERICENTER": 300.1121, "MEAN_ANOMALY": 121.0741, "EPHEMERIS_TYPE": 0, "CLASSIFICATION_TYPE": "U", "NORAD_CAT_ID": 28054, "ELEMENT_SET_NO": 999, "REV_AT_EPOCH": 14405, "BSTAR": 7.0732521e-05, "MEAN_MOTION_DOT": 9e-07, "MEAN_MOTION_DDOT": 0}, "tle": {"line1": "1 28054U 03048A   25353.27895567  .00000090  00000+0  70733-4 0  9993", "line2": "2 28054  99.0040  10.7873 0006319 300.1121 121.0741 14.14426491144052"}}, "geometry": {"type": "Point", "coordinates": [-164.3487537971795, 25.181039180904513]}}, {"type": "Feature", "properties": {"norad_id": 28912, "name": "METEOSAT-9 (MSG-2)", "group": "weather", "lat": 4.399742333921524, "lon": 84.9746557634671, "alt_km": 35796.76338248357, "timestamp": "2025-12-19T20:42:59.723411+00:00", "meta": {"OBJECT_NAME": "METEOSAT-9 (MSG-2)", "OBJECT_ID": "2005-049B", "EPOCH": "2025-12-17T18:40:44.289696", "MEAN_MOTION": 1.00279199, "ECCENTRICITY": 0.00033756, "INCLINATION": 8.9502, "RA_OF_ASC_NODE": 55.9296, "ARG_OF_PERICENTER": 190.8164, "MEAN_ANOMALY": 165.8697, "EPHEMERIS_TYPE": 0, "CLASSIFICATION_TYPE": "U", "NORAD_CAT_ID": 28912, "ELEMENT_SET_NO": 999, "REV_AT_EPOCH": 517, "BSTAR": 0, "MEAN_MOTION_DOT": 1.4e-06, "MEAN_MOTION_DDOT": 0}, "tle": {"line1": "1 28912U 05049B   25351.77829039  .00000140  00000+0  00000+0 0  9994", "line2": "2 28912   8.9502  55.9296 0003375 190.8164 165.8697  1.00279199  5174"}}, "geometry": {"type": "Point", "coordinates": [84.9746557634671, 4.399742333921524]}}, {"type": "Feature", "properties": {"norad_id": 29522, "name": "DMSP 5D-3 F17 (USA 191)", "group": "weather", "lat": 70.71562842274648, "lon": -154.8168829617046, "alt_km": 836.4565121768228, "timestamp": "2025-12-19T20:42:59.723429+00:00", "meta": {"OBJECT_NAME": "DMSP 5D-3 F17 (USA 191)", "OBJECT_ID": "2006-050A", "EPOCH": "2025-12-19T06:38:01.171680", "MEAN_MOTION": 14.14922348, "ECCENTRICITY": 0.00096637, "INCLINATION": 98.739, "RA_OF_ASC_NODE": 358.5294, "ARG_OF_PERICENTER": 205.1108, "MEAN_ANOMALY": 154.9597, "EPHEMERIS_TYPE": 0, "CLASSIFICATION_TYPE": "U", "NORAD_CAT_ID": 29522, "ELEMENT_SET_NO": 999, "REV_AT_EPOCH": 98697, "BSTAR": 9.4082092e-05, "MEAN_MOTION_DOT": 1.39e-06, "MEAN_MOTION_DDOT": 0}, "tle": {"line1": "1 29522U 06050A   25353.27640245  .00000139  00000+0  94082-4 0  9998", "line2": "2 29522  98.7390 358.5294 0009663 205.1108 154.9597 14.14922348986972"}}, "geometry": {"type": "Point", "coordinates": [-154.8168829617046, 70.71562842274648]}}, {"type": "Feature", "properties": {"norad_id": 32958, "name": "FENGYUN 3A", "group": "weather", "lat": -59.900156067527405, "lon": -51.49827546618497, "alt_km": 828.6456227142198, "timestamp": "2025-12-19T20:42:59.723443+00:00", "meta": {"OBJECT_NAME": "FENGYUN 3A", "OBJECT_ID": "2008-026A", "EPOCH": "2025-12-18T19:37:42.374784", "MEAN_MOTION": 14.19516502, "ECCENTRICITY": 0.00077003, "INCLINATION": 98.6703, "RA_OF_ASC_NODE": 292.2167, "ARG_OF_PERICENTER": 291.0603, "MEAN_ANOMALY": 68.975, "EPHEMERIS_TYPE": 0, "CLASSIFICATION_TYPE": "U", "NORAD_CAT_ID": 32958, "ELEMENT_SET_NO": 999, "REV_AT_EPOCH": 90981, "BSTAR": 5.5044233e-05, "MEAN_MOTION_DOT": 7.3e-07, "MEAN_MOTION_DDOT": 0}, "tle": {"line1": "1 32958U 08026A   25352.81785156  .00000073  00000+0  55044-4 0  9992", "line2": "2 32958  98.6703 292.2167 0007700 291.0603  68.9750 14.19516502909812"}}, "geometry": {"type": "Point", "coordinates": [-51.49827546618497, -59.900156067527405]}}, {"type": "Feature", "properties": {"norad_id": 35491, "name": "GOES 14", "group": "weather", "lat": -0.441033927545366, "lon": -74.80644024476258, "alt_km": 35833.19889368962, "timestamp": "2025-12-19T20:42:59.723458+00:00", "meta": {"OBJECT_NAME": "GOES 14", "OBJECT_ID": "2009-033A", "EPOCH": "2025-12-19T05:52:24.244320", "MEAN_MOTION": 1.00096818, "ECCENTRICITY": 5.145e-05, "INCLINATION": 1.2197, "RA_OF_ASC_NODE": 85.3408, "ARG_OF_PERICENTER": 179.4903, "MEAN_ANOMALY": 157.5047, "EPHEMERIS_TYPE": 0, "CLASSIFICATION_TYPE": "U", "NORAD_CAT_ID": 35491, "ELEMENT_SET_NO": 999, "REV_AT_EPOCH": 478, "BSTAR": 0, "MEAN_MOTION_DOT": 1.7e-07, "MEAN_MOTION_DDOT": 0}, "tle": {"line1": "1 35491U 09033A   25353.24472505  .00000017  00000+0  00000+0 0  9990", "line2": "2 35491   1.2197  85.3408 0000514 179.4903 157.5047  1.00096818  4786"}}, "geometry": {"type": "Point", "coordinates": [-74.80644024476258, -0.441033927545366]}}, {"type": "Feature", "properties": {"norad_id": 35951, "name": "DMSP 5D-3 F18 (USA 210)", "group": "weather", "lat": -28.863948633964895, "lon": -24.825702789744522, "alt_km": 846.361227865752, "timestamp": "2025-12-19T20:42:59.723472+00:00", "meta": {"OBJECT_NAME": "DMSP 5D-3 F18 (USA 210)", "OBJECT_ID": "2009-057A", "EPOCH": "2025-12-19T03:52:51.852864", "MEAN_MOTION": 14.14773377, "ECCENTRICITY": 0.00119208, "INCLINATION": 98.884, "RA_OF_ASC_NODE": 329.5305, "ARG_OF_PERICENTER": 45.8595, "MEAN_ANOMALY": 314.3556, "EPHEMERIS_TYPE": 0, "CLASSIFICATION_TYPE": "U", "NORAD_CAT_ID": 35951, "ELEMENT_SET_NO": 999, "REV_AT_EPOCH": 83413, "BSTAR": 0.00013845182, "MEAN_MOTION_DOT": 2.23e-06, "MEAN_MOTION_DDOT": 0}, "tle": {"line1": "1 35951U 09057A   25353.16171126  .00000223  00000+0  13845-3 0  9997", "line2": "2 35951  98.8840 329.5305 0011920  45.8595 314.3556 14.14773377834138"}}, "geometry": {"type": "Point", "coordinates": [-24.825702789744522, -28.863948633964895]}}, {"type": "Feature", "properties": {"norad_id": 36411, "name": "EWS-G2 (GOES 15)", "group": "weather", "lat": 0.23755919669104347, "lon": 100.7918989392441, "alt_km": 35808.3789928967, "timestamp": "2025-12-19T20:42:59.723486+00:00", "meta": {"OBJECT_NAME": "EWS-G2 (GOES 15)", "OBJECT_ID": "2010-008A", "EPOCH": "2025-12-19T04:59:44.289600", "MEAN_MOTION": 1.00270809, "ECCENTRICITY": 0.00054673, "INCLINATION": 0.8289, "RA_OF_ASC_NODE": 86.0854, "ARG_OF_PERICENTER": 177.1283, "MEAN_ANOMALY": 321.1501, "EPHEMERIS_TYPE": 0, "CLASSIFICATION_TYPE": "U", "NORAD_CAT_ID": 36411, "ELEMENT_SET_NO": 999, "REV_AT_EPOCH": 5783, "BSTAR": 0, "MEAN_MOTION_DOT": 6.2e-07, "MEAN_MOTION_DDOT": 0}, "tle": {"line1": "1 36411U 10008A   25353.20815150  .00000062  00000+0  00000+0 0  9990", "line2": "2 36411   0.8289  86.0854 0005467 177.1283 321.1501  1.00270809 57839"}}, "geometry": {"type": "Point", "coordinates": [100.7918989392441, 0.23755919669104347]}}, {"type": "Feature", "properties": {"norad_id": 36744, "name": "COMS 1", "group": "weather", "lat": 4.363656436534449, "lon": 167.61492759737004, "alt_km": 35786.53482831133, "timestamp": "2025-12-19T20:42:59.723500+00:00", "meta": {"OBJECT_NAME": "COMS 1", "OBJECT_ID": "2010-032A", "EPOCH": "2025-12-18T22:17:51.601344", "MEAN_MOTION": 1.00272183, "ECCENTRICITY": 6.387e-05, "INCLINATION": 4.3545, "RA_OF_ASC_NODE": 77.9302, "ARG_OF_PERICENTER": 201.3894, "MEAN_ANOMALY": 271.1008, "EPHEMERIS_TYPE": 0, "CLASSIFICATION_TYPE": "U", "NORAD_CAT_ID": 36744, "ELEMENT_SET_NO": 999, "REV_AT_EPOCH": 4928, "BSTAR": 0, "MEAN_MOTION_DOT": -3.23e-06, "MEAN_MOTION_DDOT": 0}, "tle": {"line1": "1 36744U 10032A   25352.92906946 -.00000323  00000+0  00000+0 0  9999", "line2": "2 36744   4.3545  77.9302 0000638 201.3894 271.1008  1.00272183 49285"}}, "geometry": {"type": "Point", "coordinates": [167.61492759737004, 4.363656436534449]}}, {"type": "Feature", "properties": {"norad_id": 37214, "name": "FENGYUN 3B", "group": "weather", "lat": -62.69908874051969, "lon": 51.75166357082797, "alt_km": 838.3840743195888, "timestamp": "2025-12-19T20:42:59.723512+00:00", "meta": {"OBJECT_NAME": "FENGYUN 3B", "OBJECT_ID": "2010-059A", "EPOCH": "2025-12-19T07:44:51.080352", "MEAN_MOTION": 14.14792515, "ECCENTRICITY": 0.00217238, "INCLINATION": 98.9903, "RA_OF_ASC_NODE": 33.3465, "ARG_OF_PERICENTER": 338.9046, "MEAN_ANOMALY": 86.4493, "EPHEMERIS_TYPE": 0, "CLASSIFICATION_TYPE": "U", "NORAD_CAT_ID": 37214, "ELEMENT_SET_NO": 999, "REV_AT_EPOCH": 78199, "BSTAR": 0.00018489505, "MEAN_MOTION_DOT": 3.12e-06, "MEAN_MOTION_DDOT": 0}, "tle": {"line1": "1 37214U 10059A   25353.32281343  .00000312  00000+0  18490-3 0  9996", "line2": "2 37214  98.9903  33.3465 0021723 338.9046  86.4493 14.14792515781996"}}, "geometry": {"type": "Point", "coordinates": [51.75166357082797, -62.69908874051969]}}, {"type": "Feature", "properties": {"norad_id": 37849, "name": "SUOMI NPP", "group": "weather", "lat": -75.01063590052847, "lon": 75.89556070971327, "alt_km": 835.8076184801876, "timestamp": "2025-12-19T20:42:59.723523+00:00", "meta": {"OBJECT_NAME": "SUOMI NPP", "OBJECT_ID": "2011-061A", "EPOCH": "2025-12-17T23:31:21.474624", "MEAN_MOTION": 14.19515682, "ECCENTRICITY": 0.00023932, "INCLINATION": 98.7779, "RA_OF_ASC_NODE": 289.2746, "ARG_OF_PERICENTER": 111.1248, "MEAN_ANOMALY": 249.0184, "EPHEMERIS_TYPE": 0, "CLASSIFICATION_TYPE": "U", "NORAD_CAT_ID": 37849, "ELEMENT_SET_NO": 999, "REV_AT_EPOCH": 73273, "BSTAR": 4.8615036e-05, "MEAN_MOTION_DOT": 5.8e-07, "MEAN_MOTION_DDOT": 0}, "tle": {"line1": "1 37849U 11061A   25351.98010966  .00000058  00000+0  48615-4 0  9995", "line2": "2 37849  98.7779 289.2746 0002393 111.1248 249.0184 14.19515682732735"}}, "geometry": {"type": "Point", "coordinates": [75.89556070971327, -75.01063590052847]}}]}